OBJECT_NAME,OBJECT_ID,EPOCH,MEAN_MOTION,ECCENTRICITY,INCLINATION,RA_OF_ASC_NODE,ARG_OF_PERICENTER,MEAN_ANOMALY,EPHEMERIS_TYPE,CLASSIFICATION_TYPE,NORAD_CAT_ID,ELEMENT_SET_NO,REV_AT_EPOCH,BSTAR,MEAN_MOTION_DOT,MEAN_MOTION_DDOT
INTELSAT 23 (IS-23),2012-057A,2026-07-15T02:25:24.622752,1.00273430,.0000378,0.0150,37.4174,151.4629,87.4414,0,U,38867,999,5023,0,-.294E-5,0
FM-6,2013-058A,2026-07-13T23:10:32.594592,1.00270909,.00013903,0.0142,33.4803,144.8411,344.7900,0,U,39360,999,4634,0,-.21E-6,0
INTELSAT 30 (IS-30),2014-062A,2026-07-15T14:37:05.725056,1.00269383,.00013503,0.0191,53.0115,333.2554,31.4017,0,U,40271,999,707,0,-.161E-5,0
DIRECTV 14,2014-078B,2026-07-15T12:14:38.600736,1.00267237,.00006897,0.0110,40.7880,304.5925,32.3918,0,U,40333,999,4232,0,-.135E-5,0
DIRECTV 15,2015-026A,2026-07-14T16:20:59.066880,1.00271323,.00000994,0.0176,71.4979,242.5429,120.8693,0,U,40663,999,4073,0,-.111E-5,0
SKY MEXICO-1,2015-026B,2026-07-15T12:59:41.388864,1.00269990,.00023876,0.0161,41.0040,95.2803,273.2137,0,U,40664,999,4073,0,-.244E-5,0
INTELSAT 34 (IS-34),2015-039A,2026-07-14T06:18:31.912704,1.00271009,.00005547,0.0110,352.6276,9.3806,329.2648,0,U,40874,999,3990,0,-.292E-5,0
INTELSAT 31 (IS-31),2016-035A,2026-07-13T21:34:01.136064,1.00270917,.0001186,0.0229,276.7908,13.0074,230.4271,0,U,41581,999,3695,0,-.156E-5,0
INTELSAT 36 (IS-36),2016-053A,2026-07-15T14:53:38.639904,1.00270463,.00023754,0.0119,35.0938,304.4272,245.8272,0,U,41747,999,3624,0,-.34E-6,0
INTELSAT 32E (IS-32E),2017-007B,2026-07-15T11:42:38.570688,1.00266311,.00002605,0.0238,56.5419,287.6584,81.6180,0,U,41945,999,3450,0,0,0
INTELSAT 35E (IS-35E),2017-041A,2026-07-15T13:14:38.726304,1.00266637,.0001683,0.0261,63.1048,46.6502,347.7991,0,U,42818,999,3310,0,0,0
INTELSAT 37E (IS-37E),2017-059A,2026-07-15T09:51:47.088288,1.00269739,.00025872,0.0176,46.5286,77.0427,299.6119,0,U,42950,999,3234,0,-.151E-5,0
AZERSPACE 2 (IS-38),2018-074A,2026-07-15T10:09:37.877184,1.00270992,.00012652,0.0174,35.4767,86.0535,9.2483,0,U,43632,999,2873,0,.127E-5,0
HORIZONS-3E,2018-074B,2026-07-13T15:21:38.465856,1.00270118,.00009408,0.0498,224.9289,53.6947,52.2963,0,U,43633,999,2860,0,-.35E-6,0
AT&T T-16,2019-034A,2026-07-14T19:46:46.069248,1.00268430,.00006162,0.0157,70.7114,248.2150,169.5701,0,U,44333,999,2591,0,-.123E-5,0
INTELSAT 39 (IS-39),2019-049B,2026-07-13T22:12:21.718368,1.00272225,.0000733,0.0241,49.4551,282.1376,355.2527,0,U,44476,999,2539,0,0,0
GALAXY 30 (G-30),2020-056C,2026-07-15T14:29:13.977600,1.00271927,.0001999,0.0141,59.9575,55.8237,269.9665,0,U,46114,999,2157,0,.27E-6,0
GALAXY 33 (G-33),2022-128A,2026-07-15T14:26:51.706176,1.00272422,.00018045,0.0105,50.1719,70.4578,256.5328,0,U,54026,999,1402,0,.69E-6,0
GALAXY 34 (G-34),2022-128B,2026-07-15T14:28:06.585600,1.00276371,.00014957,0.0123,37.6319,90.8767,252.9656,0,U,54027,999,1419,0,.48E-6,0
GALAXY 31 (G-31),2022-153A,2026-07-15T14:30:21.371328,1.00271275,.00009942,0.0140,80.0443,39.6493,270.3230,0,U,54243,999,741,0,.3E-7,0
GALAXY 32 (G-32),2022-153B,2026-07-15T02:40:15.364416,1.00269870,.0001428,0.0090,48.1859,1.0380,192.7879,0,U,54244,999,1342,0,-.183E-5,0
GALAXY 35 (G-35),2022-170A,2026-07-15T14:38:13.117056,1.00272224,.00017625,0.0172,72.5640,44.1053,303.2186,0,U,54741,999,1317,0,-.172E-5,0
GALAXY 36 (G-36),2022-170B,2026-07-15T12:06:38.657376,1.00270259,.00023992,0.0074,142.3679,317.1370,286.4976,0,U,54742,999,1305,0,-.195E-5,0
GALAXY 37 (G-37),2023-112A,2026-07-13T23:07:32.881728,1.00271325,.00017395,0.0218,73.5270,44.1230,34.0616,0,U,57493,999,1081,0,.42E-6,0
